*******************************************************************************
JPL/HORIZONS              1455 Mitchella (1937 LF)         2023-Sep-04 11:12:15
Rec #:    1455 (+COV) Soln.date: 2023-Aug-22_02:40:20   # obs: 3900 (1937-2023)
 
IAU76/J2000 helio. ecliptic osc. elements (au, days, deg., period=Julian yrs):
 
  EPOCH=  2457496.5 ! 2016-Apr-18.00 (TDB)         Residual RMS= .23548
   EC= .1245285286571639   QR= 1.96702389236557    TP= 2456903.2830841853
   OM= 128.3403002234033   W=  100.6541736335109   IN= 7.755137905774331
   A= 2.246816665937113    MA= 173.6065655592583   ADIST= 2.526609439508657
   PER= 3.3679             N= .292652756           ANGMOM= .02558418
   DAN= 2.2641             DDN= 2.16219            L= 229.0905367
   B= 7.6206459            MOID= .97458899         TP= 2014-Sep-02.7830841853
 
Asteroid physical parameters (km, seconds, rotational period in hours):
   GM= n.a.                RAD= 3.323              ROTPER= 118.7
   H= 12.84                G= .150                 B-V= n.a.
                           ALBEDO= .333            STYP= n.a.

ASTEROID comments: 
1: soln ref.= JPL#60, OCC=0
2: source=ORB
*******************************************************************************

  

*******************************************************************************
Ephemeris / API_USER Mon Sep  4 11:12:15 2023 Pasadena, USA      / Horizons
*******************************************************************************
Target body name: 1455 Mitchella (1937 LF)        {source: JPL#60}
Center body name: Solar System Barycenter (0)     {source: DE441}
Center-site name: BODY CENTER
*******************************************************************************
Start time      : A.D. 2023-Aug-12 00:00:00.0000 TDB
Stop  time      : A.D. 2023-Aug-13 00:00:00.0000 TDB
Step-size       : 2880 minutes
*******************************************************************************
Center geodetic : 0.0, 0.0, 0.0                   {E-lon(deg),Lat(deg),Alt(km)}
Center cylindric: 0.0, 0.0, 0.0                   {E-lon(deg),Dxy(km),Dz(km)}
Center radii    : (undefined)
Small perturbers: Yes                             {source: SB441-N16}
Output units    : KM-S
Calendar mode   : Mixed Julian/Gregorian
Output type     : GEOMETRIC cartesian states
Output format   : 2 (position and velocity)
Reference frame : Ecliptic of J2000.0
*******************************************************************************
Initial IAU76/J2000 heliocentric ecliptic osculating elements (au, days, deg.):
  EPOCH=  2457496.5 ! 2016-Apr-18.00 (TDB)         Residual RMS= .23548        
   EC= .1245285286571639   QR= 1.96702389236557    TP= 2456903.2830841853      
   OM= 128.3403002234033   W=  100.6541736335109   IN= 7.755137905774331       
  Equivalent ICRF heliocentric cartesian coordinates (au, au/d):
   X= 1.799202090651600E+00  Y= 1.730537251551528E+00  Z= 3.806733961308513E-01
  VX=-6.937935149814972E-03 VY= 6.727345775677417E-03 VZ= 3.044556224596714E-03
Asteroid physical parameters (km, seconds, rotational period in hours):        
   GM= n.a.                RAD= 3.323              ROTPER= 118.7               
   H= 12.84                G= .150                 B-V= n.a.                   
                           ALBEDO= .333            STYP= n.a.                  
*******************************************************************************
JDTDB
   X     Y     Z
   VX    VY    VZ
*******************************************************************************
$$SOE
2460168.500000000 = A.D. 2023-Aug-12 00:00:00.0000 TDB 
 X =-2.602339236664736E+07 Y = 3.611262145353616E+08 Z =-2.777439104098114E+07
 VX=-1.796435967795805E+01 VY=-2.846327958217863E+00 VZ= 2.159962806051990E+00
$$EOE
*******************************************************************************
 
TIME

  Barycentric Dynamical Time ("TDB" or T_eph) output was requested. This
continuous coordinate time is equivalent to the relativistic proper time
of a clock at rest in a reference frame co-moving with the solar system
barycenter but outside the system's gravity well. It is the independent
variable in the solar system relativistic equations of motion.

  TDB runs at a uniform rate of one SI second per second and is independent
of irregularities in Earth's rotation.
 
CALENDAR SYSTEM

  Mixed calendar mode was active such that calendar dates after AD 1582-Oct-15
(if any) are in the modern Gregorian system. Dates prior to 1582-Oct-5 (if any)
are in the Julian calendar system, which is automatically extended for dates
prior to its adoption on 45-Jan-1 BC.  The Julian calendar is useful for
matching historical dates. The Gregorian calendar more accurately corresponds
to the Earth's orbital motion and seasons. A "Gregorian-only" calendar mode is
available if such physical events are the primary interest.

REFERENCE FRAME AND COORDINATES

  Ecliptic at the standard reference epoch

    Reference epoch: J2000.0
    X-Y plane: adopted Earth orbital plane at the reference epoch
               Note: IAU76 obliquity of 84381.448 arcseconds wrt ICRF X-Y plane
    X-axis   : ICRF
    Z-axis   : perpendicular to the X-Y plane in the directional (+ or -) sense
               of Earth's north pole at the reference epoch.

  Symbol meaning:

    JDTDB    Julian Day Number, Barycentric Dynamical Time
      X      X-component of position vector (km)
      Y      Y-component of position vector (km)
      Z      Z-component of position vector (km)
      VX     X-component of velocity vector (km/sec)                           
      VY     Y-component of velocity vector (km/sec)                           
      VZ     Z-component of velocity vector (km/sec)                           

ABERRATIONS AND CORRECTIONS

 Geometric state vectors have NO corrections or aberrations applied.

Computations by ...

    Solar System Dynamics Group, Horizons On-Line Ephemeris System
    4800 Oak Grove Drive, Jet Propulsion Laboratory
    Pasadena, CA  91109   USA

    General site: https://ssd.jpl.nasa.gov/
    Mailing list: https://ssd.jpl.nasa.gov/email_list.html
    System news : https://ssd.jpl.nasa.gov/horizons/news.html
    User Guide  : https://ssd.jpl.nasa.gov/horizons/manual.html
    Connect     : browser        https://ssd.jpl.nasa.gov/horizons/app.html#/x
                  API            https://ssd-api.jpl.nasa.gov/doc/horizons.html
                  command-line   telnet ssd.jpl.nasa.gov 6775
                  e-mail/batch   https://ssd.jpl.nasa.gov/ftp/ssd/hrzn_batch.txt
                  scripts        https://ssd.jpl.nasa.gov/ftp/ssd/SCRIPTS
    Author      : Jon.D.Giorgini@jpl.nasa.gov
*******************************************************************************
